COSMOS 2503             
1 40420U 15009A   26068.69626972  .00002817  00000+0  19590-3 0  9998
2 40420  97.8437 123.7175 0015321 225.7450 134.2520 15.06275973603958
STARLINK-3561           
1 52284U 22041Z   26068.37796713  .00000723  00000+0  63526-4 0  9992
2 52284  53.2165 100.5193 0001335  86.3847 273.7298 15.08832024214459
